{
  "norad_id": 61599,
  "name": "ONEWEB-0691",
  "history": [
    {
      "epoch": "2026-04-10T05:10:13.847520Z",
      "apogee_km": 1218.8681035097716,
      "perigee_km": 1216.5249407848587,
      "latitude_deg": -4.912495189053779e-05,
      "longitude_deg": 118.4615243671907,
      "height_km": 1220.5367441677315,
      "semi_major_axis_km": 7595.833522147314,
      "eccentricity": 0.00015424,
      "inclination_deg": 87.8934,
      "raan_deg": 34.4717,
      "arg_perigee_deg": 87.7276,
      "mean_anomaly_deg": 272.4028,
      "mean_motion_rev_day": 13.11413365
    },
    {
      "epoch": "2026-04-11T08:38:14.831232Z",
      "apogee_km": 1218.873248067769,
      "perigee_km": 1216.5200588019343,
      "latitude_deg": -2.7968343646455104e-05,
      "longitude_deg": 65.10209676989754,
      "height_km": 1220.542447552975,
      "semi_major_axis_km": 7595.833653434851,
      "eccentricity": 0.0001549,
      "inclination_deg": 87.8934,
      "raan_deg": 34.2444,
      "arg_perigee_deg": 88.0095,
      "mean_anomaly_deg": 272.121,
      "mean_motion_rev_day": 13.11413331
    },
    {
      "epoch": "2026-04-13T06:24:56.514528Z",
      "apogee_km": 1218.8763611636505,
      "perigee_km": 1216.5145130256606,
      "latitude_deg": -8.902514360302916e-07,
      "longitude_deg": 96.16947027980643,
      "height_km": 1220.5590094347476,
      "semi_major_axis_km": 7595.832437094656,
      "eccentricity": 0.00015547,
      "inclination_deg": 87.8932,
      "raan_deg": 33.8655,
      "arg_perigee_deg": 88.8803,
      "mean_anomaly_deg": 271.2503,
      "mean_motion_rev_day": 13.11413646
    },
    {
      "epoch": "2026-04-14T17:12:25.641216Z",
      "apogee_km": 1218.8886616047794,
      "perigee_km": 1216.4929375167976,
      "latitude_deg": 4.3267892700574836e-05,
      "longitude_deg": -67.41842080621538,
      "height_km": 1220.5556538503472,
      "semi_major_axis_km": 7595.827799560789,
      "eccentricity": 0.0001577,
      "inclination_deg": 87.8933,
      "raan_deg": 33.5778,
      "arg_perigee_deg": 88.9595,
      "mean_anomaly_deg": 271.1714,
      "mean_motion_rev_day": 13.11414847
    },
    {
      "epoch": "2026-04-15T18:50:34.322208Z",
      "apogee_km": 1218.912578514004,
      "perigee_km": 1216.4591277324462,
      "latitude_deg": 5.107587344267458e-06,
      "longitude_deg": -93.21951362924978,
      "height_km": 1220.5609820530622,
      "semi_major_axis_km": 7595.822853123225,
      "eccentricity": 0.0001615,
      "inclination_deg": 87.8935,
      "raan_deg": 33.3657,
      "arg_perigee_deg": 89.4665,
      "mean_anomaly_deg": 270.6648,
      "mean_motion_rev_day": 13.11416128
    },
    {
      "epoch": "2026-04-16T18:38:50.991648Z",
      "apogee_km": 1218.8320494231448,
      "perigee_km": 1216.5517815827106,
      "latitude_deg": 2.8826002201459448e-05,
      "longitude_deg": -91.46368829369678,
      "height_km": 1220.6329266907599,
      "semi_major_axis_km": 7595.828915502928,
      "eccentricity": 0.0001501,
      "inclination_deg": 87.8923,
      "raan_deg": 33.1686,
      "arg_perigee_deg": 92.7279,
      "mean_anomaly_deg": 267.4021,
      "mean_motion_rev_day": 13.11414558
    },
    {
      "epoch": "2026-04-17T18:27:07.290432Z",
      "apogee_km": 1218.9203743119506,
      "perigee_km": 1216.4392767040663,
      "latitude_deg": -3.904005304237791e-06,
      "longitude_deg": -89.70591698447338,
      "height_km": 1220.5796198091798,
      "semi_major_axis_km": 7595.816825508008,
      "eccentricity": 0.00016332,
      "inclination_deg": 87.8933,
      "raan_deg": 32.9719,
      "arg_perigee_deg": 90.6128,
      "mean_anomaly_deg": 269.5187,
      "mean_motion_rev_day": 13.11417689
    },
    {
      "epoch": "2026-04-18T05:26:19.549824Z",
      "apogee_km": 1218.9648522638217,
      "perigee_km": 1216.3967062726515,
      "latitude_deg": 4.192504800053201e-05,
      "longitude_deg": 104.95089483209821,
      "height_km": 1220.5918181131933,
      "semi_major_axis_km": 7595.817779268236,
      "eccentricity": 0.00016905,
      "inclination_deg": 87.8936,
      "raan_deg": 32.881,
      "arg_perigee_deg": 91.0984,
      "mean_anomaly_deg": 269.0338,
      "mean_motion_rev_day": 13.11417442
    },
    {
      "epoch": "2026-04-19T05:14:35.872800Z",
      "apogee_km": 1218.9220326037494,
      "perigee_km": 1216.4351625770978,
      "latitude_deg": -4.813197930764749e-05,
      "longitude_deg": 106.7082613761042,
      "height_km": 1220.5589539823043,
      "semi_major_axis_km": 7595.815597590423,
      "eccentricity": 0.0001637,
      "inclination_deg": 87.8943,
      "raan_deg": 32.684,
      "arg_perigee_deg": 89.7155,
      "mean_anomaly_deg": 270.416,
      "mean_motion_rev_day": 13.11418007
    },
    {
      "epoch": "2026-04-20T05:02:52.118880Z",
      "apogee_km": 1218.968032467359,
      "perigee_km": 1216.3854557943541,
      "latitude_deg": 3.1086683259309686e-05,
      "longitude_deg": 108.46575422357445,
      "height_km": 1220.5511852199238,
      "semi_major_axis_km": 7595.813744130856,
      "eccentricity": 0.00017,
      "inclination_deg": 87.8943,
      "raan_deg": 32.4868,
      "arg_perigee_deg": 89.469,
      "mean_anomaly_deg": 270.6633,
      "mean_motion_rev_day": 13.11418487
    },
    {
      "epoch": "2026-04-21T19:30:04.802112Z",
      "apogee_km": 1219.03962609471,
      "perigee_km": 1216.3188047263493,
      "latitude_deg": -1.0027809558700617e-05,
      "longitude_deg": -110.23392803328872,
      "height_km": 1220.5911621142868,
      "semi_major_axis_km": 7595.816215410529,
      "eccentricity": 0.0001791,
      "inclination_deg": 87.8948,
      "raan_deg": 32.1692,
      "arg_perigee_deg": 91.0817,
      "mean_anomaly_deg": 269.0516,
      "mean_motion_rev_day": 13.11417847
    },
    {
      "epoch": "2026-04-22T17:28:29.161056Z",
      "apogee_km": 1218.9998598540305,
      "perigee_km": 1216.365629566565,
      "latitude_deg": -5.565821814900134e-05,
      "longitude_deg": -80.91984439186027,
      "height_km": 1220.598908054434,
      "semi_major_axis_km": 7595.8197447102975,
      "eccentricity": 0.0001734,
      "inclination_deg": 87.8941,
      "raan_deg": 31.9872,
      "arg_perigee_deg": 91.2963,
      "mean_anomaly_deg": 268.8363,
      "mean_motion_rev_day": 13.11416933
    },
    {
      "epoch": "2026-04-23T11:47:09.592800Z",
      "apogee_km": 1219.0081404868188,
      "perigee_km": 1216.3606928902454,
      "latitude_deg": 4.712433683106888e-05,
      "longitude_deg": 3.508376698198393,
      "height_km": 1220.6062415877589,
      "semi_major_axis_km": 7595.821416688532,
      "eccentricity": 0.00017427,
      "inclination_deg": 87.8943,
      "raan_deg": 31.8359,
      "arg_perigee_deg": 91.5362,
      "mean_anomaly_deg": 268.5966,
      "mean_motion_rev_day": 13.114165
    },
    {
      "epoch": "2026-04-24T18:54:54.393984Z",
      "apogee_km": 1219.020669548614,
      "perigee_km": 1216.3545351131952,
      "latitude_deg": 7.885680100455338e-06,
      "longitude_deg": -104.96402513212273,
      "height_km": 1220.6141180818288,
      "semi_major_axis_km": 7595.824602330904,
      "eccentricity": 0.0001755,
      "inclination_deg": 87.8943,
      "raan_deg": 31.5786,
      "arg_perigee_deg": 91.7278,
      "mean_anomaly_deg": 268.4051,
      "mean_motion_rev_day": 13.11415675
    },
    {
      "epoch": "2026-04-25T18:43:11.103168Z",
      "apogee_km": 1219.032182883946,
      "perigee_km": 1216.347817622057,
      "latitude_deg": 7.429569294206607e-05,
      "longitude_deg": -103.20786642439631,
      "height_km": 1220.6241497273227,
      "semi_major_axis_km": 7595.827000253002,
      "eccentricity": 0.0001767,
      "inclination_deg": 87.8943,
      "raan_deg": 31.382,
      "arg_perigee_deg": 92.0434,
      "mean_anomaly_deg": 268.0897,
      "mean_motion_rev_day": 13.11415054
    },
    {
      "epoch": "2026-04-26T18:31:27.892704Z",
      "apogee_km": 1219.036764724181,
      "perigee_km": 1216.3475373715437,
      "latitude_deg": 3.919642836905066e-05,
      "longitude_deg": -101.45234649477483,
      "height_km": 1220.6295788340021,
      "semi_major_axis_km": 7595.829151047862,
      "eccentricity": 0.00017702,
      "inclination_deg": 87.8943,
      "raan_deg": 31.1851,
      "arg_perigee_deg": 92.1795,
      "mean_anomaly_deg": 267.9536,
      "mean_motion_rev_day": 13.11414497
    },
    {
      "epoch": "2026-04-27T18:19:44.696064Z",
      "apogee_km": 1219.0454021409314,
      "perigee_km": 1216.3367298525973,
      "latitude_deg": 9.04750648257685e-05,
      "longitude_deg": -99.69678082453082,
      "height_km": 1220.6242780182065,
      "semi_major_axis_km": 7595.828065996764,
      "eccentricity": 0.0001783,
      "inclination_deg": 87.8943,
      "raan_deg": 30.9883,
      "arg_perigee_deg": 91.9867,
      "mean_anomaly_deg": 268.1466,
      "mean_motion_rev_day": 13.11414778
    },
    {
      "epoch": "2026-04-28T18:08:01.513248Z",
      "apogee_km": 1219.0754610372287,
      "perigee_km": 1216.3060222426266,
      "latitude_deg": 3.228454720698779e-05,
      "longitude_deg": -97.94137694130177,
      "height_km": 1220.6253917498796,
      "semi_major_axis_km": 7595.827741639927,
      "eccentricity": 0.0001823,
      "inclination_deg": 87.8942,
      "raan_deg": 30.7914,
      "arg_perigee_deg": 92.0052,
      "mean_anomaly_deg": 268.1285,
      "mean_motion_rev_day": 13.11414862
    },
    {
      "epoch": "2026-04-29T17:56:18.218976Z",
      "apogee_km": 1219.0871111469087,
      "perigee_km": 1216.287290346514,
      "latitude_deg": 5.176552840778485e-06,
      "longitude_deg": -96.18540661551731,
      "height_km": 1220.6264264294332,
      "semi_major_axis_km": 7595.8242007467115,
      "eccentricity": 0.0001843,
      "inclination_deg": 87.8942,
      "raan_deg": 30.5946,
      "arg_perigee_deg": 92.172,
      "mean_anomaly_deg": 267.9619,
      "mean_motion_rev_day": 13.11415779
    }
  ]
}